STARLINK-34492          
1 64473C 25133B   26109.71229167 -.00052023  00000+0 -17534-2 0  1099
2 64473  53.1592 286.4464 0001242  83.3873  18.2758 15.30216282    18
STARLINK-34474          
1 64474C 25133C   26109.71159722 -.00094501  00000+0 -31828-2 0  1098
2 64474  53.1597 286.4149 0000999  87.6088  27.6367 15.30262099    14
STARLINK-34523          
1 64475C 25133D   26109.77895833 -.00010578  00000+0 -35656-3 0  1091
2 64475  53.1601 286.0325 0001272  87.3028  74.1696 15.30192127    15
STARLINK-34496          
1 64476C 25133E   26109.78173611 -.00012332  00000+0 -41570-3 0  1098
2 64476  53.1596 285.9508 0001273  89.0483 122.6323 15.30192451    11
STARLINK-34375          
1 64477C 25133F   26109.72270833 -.00018404  00000+0 -62032-3 0  1099
2 64477  53.1588 286.1555 0001254  92.6172 188.6140 15.30199253    18
STARLINK-34490          
1 64478C 25133G   26109.72270833 -.00036138  00000+0 -12183-2 0  1095
2 64478  53.1576 286.0400 0001229  90.3259 249.0708 15.30201461    14
STARLINK-34528          
1 64479C 25133H   26109.72895833 -.00041097  00000+0 -13852-2 0  1093
2 64479  53.1579 286.0460 0001262  90.9290 265.4673 15.30210672    19
STARLINK-34518          
1 64480C 25133J   26109.76645833 -.00013609  00000+0 -45872-3 0  1098
2 64480  53.1570 285.8025 0001216  83.5106 154.4729 15.30194288    12
STARLINK-34526          
1 64481C 25133K   26109.80604167 -.00014945  00000+0 -50377-3 0  1099
2 64481  53.1569 285.5837 0001173  82.6422  30.9649 15.30195492    19
STARLINK-34527          
1 64482C 25133L   26109.76506944 -.00023769  00000+0 -80119-3 0  1090
2 64482  53.1575 285.6701 0001159  87.6530 212.4732 15.30200686    19
STARLINK-34420          
1 64483C 25133M   26109.74979167 -.00014234  00000+0 -47986-3 0  1092
2 64483  53.1582 285.6714 0001084  84.0520 166.7779 15.30190142    16
STARLINK-34509          
1 64484C 25133N   26109.73937500 -.00093118  00000+0 -31403-2 0  1091
2 64484  53.1584 286.3964 0001138  94.6053 115.7272 15.30218513    17
STARLINK-34409          
1 64485C 25133P   26109.79770833 -.00027497  00000+0 -92688-3 0  1092
2 64485  53.1587 286.1025 0001177  89.1693  94.2224 15.30200723    11
STARLINK-34520          
1 64486C 25133Q   26109.71576389 -.00046534  00000+0 -15684-2 0  1098
2 64486  53.1588 286.4479 0001185  92.4239  16.7513 15.30214414    13
STARLINK-34477          
1 64487C 25133R   26109.77479167 -.00042457  00000+0 -14312-2 0  1098
2 64487  53.1596 286.1386 0001218  90.1786   1.7982 15.30207776    13
STARLINK-34217          
1 64488C 25133S   26109.74493056 -.00031874  00000+0 -10745-2 0  1096
2 64488  53.1597 286.2421 0001139  88.9347 215.9037 15.30201203    15
STARLINK-34307          
1 64489C 25133T   26109.75743056 -.00049496  00000+0 -16685-2 0  1094
2 64489  53.1600 286.1489 0001005  80.3093 310.8763 15.30209819    12
STARLINK-34505          
1 64490C 25133U   26109.72201389 -.00010839  00000+0 -36545-3 0  1098
2 64490  53.1599 286.2789 0001076  87.9783 125.4488 15.30186379    11
STARLINK-34530          
1 64491C 25133V   26109.71437500 -.00026626  00000+0 -89748-3 0  1098
2 64491  53.1599 286.2796 0001295  90.7397  98.0311 15.30201952    11
STARLINK-34522          
1 64492C 25133W   26109.78798611 -.00010762  00000+0 -36276-3 0  1091
2 64492  53.1597 285.9035 0001190  86.4725 165.4798 15.30192356    18
STARLINK-34462          
1 64493C 25133X   26109.78381944 -.00009430  00000+0 -31785-3 0  1099
2 64493  53.1591 285.8880 0001300  86.6730 159.7623 15.30193524    12
STARLINK-34226          
1 64494C 25133Y   26109.71576389 -.00011956  00000+0 -40307-3 0  1098
2 64494  53.1585 286.1694 0001045  86.5929 162.1882 15.30187856    14
STARLINK-34364          
1 64495C 25133Z   26109.71645833 -.00016686  00000+0 -56271-3 0  1092
2 64495  53.1595 283.9960 0001279  90.3361 171.0638 15.30179765    17
STARLINK-34268          
1 64496C 25133AA  26109.79423611  .02177700  00000+0  77962-2 0  1093
2 64496  53.1593 282.6822 0000789  61.8967  26.1403 15.87004118    10
STARLINK-34363          
1 64497C 25133AB  26109.75743056 -.00007177  00000+0 -24194-3 0  1098
2 64497  53.1576 285.8944 0001171  86.3100  72.8233 15.30187699    12
STARLINK-34427          
1 64498C 25133AC  26109.77201389 -.00001170  00000+0 -39441-4 0  1098
2 64498  53.1574 285.7920 0001230  82.0519 174.9227 15.30191228    17
STARLINK-34280          
1 64594C 25137A   26109.74840278 -.00033444  00000+0 -11273-2 0  1092
2 64594  53.1570 144.5136 0001141  79.3515 197.7852 15.30205782    15
STARLINK-34517          
1 64595C 25137B   26109.78243056 -.00036032  00000+0 -12146-2 0  1094
2 64595  53.1567 144.5577 0001058  85.0967 274.9150 15.30204953    11
STARLINK-34510          
1 64596C 25137C   26109.73520833 -.00027709  00000+0 -93407-3 0  1092
2 64596  53.1570 144.7213 0001277  84.6291  44.1767 15.30199485    17
STARLINK-34486          
1 64597C 25137D   26109.72409722 -.00032208  00000+0 -10858-2 0  1093
2 64597  53.1570 145.0354 0001212  81.5630 212.2284 15.30200936    16
STARLINK-34463          
1 64598C 25137E   26109.77131944 -.00044074  00000+0 -14862-2 0  1090
2 64598  53.1563 144.7334 0001180  88.3132 146.5254 15.30196774    19
STARLINK-34294          
1 64599C 25137F   26109.76368056 -.00033499  00000+0 -11292-2 0  1099
2 64599  53.1571 144.5990 0001172  83.0773 196.8478 15.30202255    17
STARLINK-34504          
1 64600C 25137G   26109.74701389 -.00029897  00000+0 -10078-2 0  1098
2 64600  53.1562 144.9095 0001244  80.4356 351.2999 15.30201887    13
STARLINK-34508          
1 64601C 25137H   26109.75256944 -.00035230  00000+0 -11868-2 0  1098
2 64601  53.1579 144.3890 0001540  65.4108 286.9866 15.30225549    14
STARLINK-34435          
1 64602C 25137J   26109.76090278 -.00033025  00000+0 -11133-2 0  1091
2 64602  53.1571 144.5756 0001190  82.6447 199.4148 15.30200151    11
STARLINK-34475          
1 64603C 25137K   26109.76229167 -.00040232  00000+0 -13561-2 0  1098
2 64603  53.1570 144.5005 0000819  70.6640 253.9547 15.30210055    10
STARLINK-34488          
1 64604C 25137L   26109.72756944 -.00031242  00000+0 -10531-2 0  1098
2 64604  53.1580 144.4708 0001479  79.7521 152.3626 15.30201783    10
STARLINK-34516          
1 64605C 25137M   26109.76715278 -.00029217  00000+0 -98488-3 0  1095
2 64605  53.1571 144.1586 0001206  74.5163  79.7571 15.30201164    19
STARLINK-34073          
1 64606C 25137N   26109.78937500 -.00027611  00000+0 -93076-3 0  1096
2 64606  53.1580 144.1335 0001244  79.7087 156.3324 15.30199571    12
STARLINK-34532          
1 64607C 25137P   26109.74562500 -.00024839  00000+0 -83740-3 0  1093
2 64607  53.1583 154.6904 0001267  82.0035  63.9826 15.30194798    15
STARLINK-34519          
1 64608C 25137Q   26109.79423611 -.00040427  00000+0 -13627-2 0  1095
2 64608  53.1572 144.2624 0001196  82.7769 104.4453 15.30206863    14
STARLINK-34513          
1 64609C 25137R   26109.75187500 -.00036683  00000+0 -12359-2 0  1096
2 64609  53.1577 144.4252 0001100  76.4077 254.7301 15.30221932    11
STARLINK-34569          
1 64610C 25137S   26109.76576389 -.00033724  00000+0 -11370-2 0  1091
2 64610  53.1568 144.6795 0001234  85.6116 159.2806 15.30197686    18
STARLINK-34494          
1 64611C 25137T   26109.73798611 -.00033244  00000+0 -11205-2 0  1097
2 64611  53.1569 144.5903 0001110  80.7794 121.5033 15.30206571    19
STARLINK-34521          
1 64612C 25137U   26109.70881944 -.00024802  00000+0 -83596-3 0  1090
2 64612  53.1575 144.6112 0001205  76.5607  23.1311 15.30201754    15
STARLINK-34500          
1 64613C 25137V   26109.76923611 -.00032830  00000+0 -11067-2 0  1098
2 64613  53.1570 144.5800 0001203  84.0827 220.6455 15.30200763    12
STARLINK-34440          
1 64614C 25137W   26109.74701389 -.00033966  00000+0 -11449-2 0  1098
2 64614  53.1568 144.6031 0001090  87.7484 135.2156 15.30206011    11
STARLINK-34469          
1 64615C 25137X   26109.77270833 -.00032438  00000+0 -10934-2 0  1098
2 64615  53.1576 144.1652 0001149  77.2137  90.2356 15.30204183    19
STARLINK-34413          
1 64616C 25137Y   26109.74076389 -.00029871  00000+0 -10069-2 0  1092
2 64616  53.1566 144.8503 0001211  85.2609 352.7462 15.30200939    13
STARLINK-34417          
1 64617C 25137Z   26109.72062500 -.00033637  00000+0 -11338-2 0  1096
2 64617  53.1573 131.9339 0001239  80.8640 249.3790 15.30205735    16
STARLINK-34415          
1 64618C 25137AA  26109.74354167 -.00032942  00000+0 -11104-2 0  1091
2 64618  53.1571 144.5152 0001229  81.5383 174.6343 15.30205079    14
STARLINK-34416          
1 64619C 25137AB  26109.72409722 -.00026919  00000+0 -90739-3 0  1097
2 64619  53.1582 144.5714 0001265  81.7651  84.6812 15.30200681    16
STARLINK-34414          
1 64620C 25137AC  26109.72756944 -.00027626  00000+0 -93130-3 0  1094
2 64620  53.1570 144.8155 0001230  83.1676 328.6424 15.30198451    13
STARLINK-34464          
1 64664C 25139A   26109.76229167 -.00042422  00000+0 -14300-2 0  1092
2 64664  53.1594 296.4243 0001190  89.1034 149.0518 15.30209037    10
STARLINK-34555          
1 64665C 25139B   26109.76784722 -.00022644  00000+0 -76280-3 0  1096
2 64665  53.1596 296.3631 0001314  77.1917 208.9808 15.30219447    11
STARLINK-34390          
1 64666C 25139C   26109.74215278 -.00039744  00000+0 -13395-2 0  1096
2 64666  53.1576 296.1269 0001214  89.4363 235.4770 15.30212716    10
STARLINK-34382          
1 64667C 25139D   26109.71437500 -.00021466  00000+0 -72349-3 0  1095
2 64667  53.1581 296.7840 0001139  81.3930 182.8465 15.30201524    16
STARLINK-34395          
1 64668C 25139E   26109.72479167 -.00036250  00000+0 -12218-2 0  1097
2 64668  53.1591 296.6307 0001154  78.8203 295.1823 15.30209698    12
STARLINK-34394          
1 64669C 25139F   26109.71506944 -.00071129  00000+0 -23956-2 0  1096
2 64669  53.1597 296.5725 0001328  86.0185 286.7143 15.30250739    18
